OBJECT_NAME,OBJECT_ID,EPOCH,MEAN_MOTION,ECCENTRICITY,INCLINATION,RA_OF_ASC_NODE,ARG_OF_PERICENTER,MEAN_ANOMALY,EPHEMERIS_TYPE,CLASSIFICATION_TYPE,NORAD_CAT_ID,ELEMENT_SET_NO,REV_AT_EPOCH,BSTAR,MEAN_MOTION_DOT,MEAN_MOTION_DDOT
INTELSAT 902 (IS-902),2001-039A,2026-06-19T04:35:07.471680,1.00271295,.00042995,6.1219,71.7594,13.2542,201.0871,0,U,26900,999,9071,0,-.292E-5,0
INTELSAT 904 (IS-904),2002-007A,2026-06-19T02:27:38.172960,1.00270224,.00065508,6.9257,69.1626,6.6050,196.9688,0,U,27380,999,5178,0,-.234E-5,0
DIRECTV 5 (TEMPO 1),2002-023A,2026-06-19T05:30:34.458336,1.00271779,.00031856,4.8840,75.2856,14.4504,150.2504,0,U,27426,999,8814,0,-.65E-6,0
INTELSAT 905 (IS-905),2002-027A,2026-06-19T07:47:01.724064,1.00272396,.00039197,6.7599,69.7758,22.6091,154.7037,0,U,27438,999,5138,0,.85E-6,0
GALAXY 3C (G-3C),2002-030A,2026-06-19T05:50:50.718912,1.00271423,.00016474,3.7383,77.9496,29.5101,152.8718,0,U,27445,999,4651,0,-.16E-5,0
INTELSAT 906 (IS-906),2002-041A,2026-06-19T04:12:21.714912,1.00270556,.00045177,5.8073,72.8975,359.5701,322.1817,0,U,27513,999,8704,0,.5E-7,0
GALAXY 13 (HORIZONS-1),2003-044A,2026-06-19T04:31:38.776800,1.00271923,.00022148,1.4241,83.8402,356.2863,105.1888,0,U,27954,999,4659,0,.126E-5,0
INTELSAT 10-02,2004-022A,2026-06-19T00:53:40.979904,1.00270098,.00002873,0.0178,304.3060,227.0710,108.3025,0,U,28358,999,8057,0,-.18E-6,0
DIRECTV 8,2005-019A,2026-06-19T05:27:57.208608,1.00270046,.00030225,0.0192,15.9003,78.6438,135.8532,0,U,28659,999,7709,0,0,0
GALAXY 28 (G-28),2005-022A,2026-06-19T05:54:13.912704,1.00270961,.00028319,3.3035,78.9096,9.1131,240.9290,0,U,28702,999,5199,0,-.207E-5,0
GALAXY 16 (G-16),2006-023A,2026-06-19T05:33:41.658624,1.00271529,.0002536,0.0159,104.7800,340.4687,166.6305,0,U,29236,999,7299,0,-.133E-5,0
DIRECTV 9S,2006-043A,2026-06-19T05:33:04.218048,1.00271066,.00050081,2.4271,80.8797,13.9256,154.7222,0,U,29494,999,5140,0,-.12E-5,0
GALAXY 17 (G-17),2007-016B,2026-06-19T03:55:02.304768,1.00271594,.0004699,2.9781,79.8766,18.9947,142.2668,0,U,31307,999,6982,0,-.213E-5,0
INTELSAT 11 (IS-11),2007-044B,2026-06-19T01:27:30.237696,0.99050017,.00024575,3.5713,78.6478,88.4670,239.6843,0,U,32253,999,6846,0,-.204E-5,0
HORIZONS-2,2007-063B,2026-06-19T02:15:37.624608,1.00273138,.00038736,2.6079,80.6019,358.9434,147.8698,0,U,32388,999,6783,0,-.261E-5,0
DIRECTV 11,2008-013A,2026-06-18T15:46:13.892736,1.00269953,.00001743,0.0065,285.2993,94.7881,24.1838,0,U,32729,999,4560,0,-.132E-5,0
GALAXY 18 (G-18),2008-024A,2026-06-19T05:26:49.816608,1.00270923,.00028505,0.0187,63.0486,22.5830,140.5282,0,U,32951,999,4587,0,.19E-6,0
INTELSAT 25 (IS-25),2008-034A,2026-06-19T01:26:15.357408,0.99033965,.00034792,2.7158,80.3515,60.6368,261.1781,0,U,33153,999,6570,0,-.175E-5,0
GALAXY 19 (G-19),2008-045A,2026-06-19T05:34:19.099200,1.00271215,.00025542,0.0309,263.5335,189.7270,160.7811,0,U,33376,999,6492,0,-.145E-5,0
FM-5,2009-034A,2026-06-19T03:54:39.839904,1.00267719,.00006838,0.0191,295.6892,7.2084,296.9935,0,U,35493,999,4666,0,-.206E-5,0
INTELSAT 14 (IS-14),2009-064A,2026-06-19T04:06:28.375200,1.00271821,.0002337,0.0124,321.8072,124.6896,197.5268,0,U,36097,999,6062,0,-.28E-5,0
INTELSAT 15 (IS-15),2009-067A,2026-06-19T03:00:57.479328,1.00272203,.0002135,0.0159,340.9265,107.1363,309.6753,0,U,36106,999,4124,0,-.191E-5,0
DIRECTV 12,2009-075A,2026-06-18T15:51:24.857568,1.00272181,.00003852,0.0434,170.9001,299.0990,292.0273,0,U,36131,999,4656,0,-.11E-5,0
INTELSAT 16 (IS-16),2010-006A,2026-06-19T05:49:13.773792,1.00272329,.00019692,0.0097,336.1585,125.2068,177.2051,0,U,36397,999,5967,0,-.251E-5,0
XM-5,2010-053A,2026-06-19T05:29:04.602336,1.00271359,.00028429,0.0615,272.7088,286.0919,35.7239,0,U,37185,999,5750,0,-.29E-6,0
INTELSAT 17 (IS-17),2010-065B,2026-06-19T04:57:21.684672,1.00271977,.00026209,0.0023,213.0668,249.4320,305.2733,0,U,37238,999,5326,0,-.8E-7,0
INTELSAT 28 (IS-28),2011-016A,2026-06-19T04:10:13.016064,1.00271470,.00036517,1.8124,82.5977,6.5709,209.0684,0,U,37392,999,5330,0,-.232E-5,0
INTELSAT 18 (IS-18),2011-056A,2026-06-19T05:03:38.511360,1.00271194,.00017605,0.0368,273.1459,174.3940,75.7990,0,U,37834,999,5383,0,.46E-6,0
INTELSAT 22 (IS-22),2012-011A,2026-06-19T04:47:21.678144,1.00272420,.00015328,0.0152,39.7365,52.4251,319.2100,0,U,38098,999,720,0,-.65E-6,0
INTELSAT 19 (IS-19),2012-030A,2026-06-19T03:24:01.207296,1.00271504,.00029475,0.0183,9.3106,86.6833,28.3730,0,U,38356,999,5047,0,-.63E-6,0
INTELSAT 20 (IS-20),2012-043A,2026-06-19T02:56:12.933024,1.00269776,.00016113,0.0349,67.9275,107.7521,204.2199,0,U,38740,999,5076,0,0,0
