
DIRECTV 11
1 32729U 08013A   26169.65710524 -.00000132  00000+0  00000+0 0  9994
2 32729   0.0065 285.2993 0000174  94.7881  24.1838  1.00269953 45609

DIRECTV 12
1 36131U 09075A   26169.66070437 -.00000110  00000+0  00000+0 0  9993
2 36131   0.0434 170.9001 0000385 299.0990 292.0273  1.00272181 46567

DIRECTV 5 (TEMPO 1)
1 27426U 02023A   26170.22956549 -.00000065  00000+0  00000+0 0  9996
2 27426   4.8840  75.2856 0003185  14.4504 150.2504  1.00271779 88147

DIRECTV 8
1 28659U 05019A   26170.22774547  .00000000  00000+0  00000+0 0  9997
2 28659   0.0192  15.9003 0003022  78.6438 135.8532  1.00270046 77095

DIRECTV 9S
1 29494U 06043A   26170.23129882 -.00000120  00000+0  00000+0 0  9994
2 29494   2.4271  80.8797 0005008  13.9256 154.7222  1.00271066 51400

FM-5
1 35493U 09034A   26170.16296111 -.00000206  00000+0  00000+0 0  9990
2 35493   0.0191 295.6892 0000683   7.2084 296.9935  1.00267719 46664

GALAXY 13 (HORIZONS-1)
1 27954U 03044A   26170.18864325  .00000126  00000+0  00000+0 0  9998
2 27954   1.4241  83.8402 0002214 356.2863 105.1888  1.00271923 46598

GALAXY 16 (G-16)
1 29236U 06023A   26170.23173216 -.00000133  00000+0  00000+0 0  9990
2 29236   0.0159 104.7800 0002536 340.4687 166.6305  1.00271529 72998

GALAXY 17 (G-17)
1 31307U 07016B   26170.16322112 -.00000213  00000+0  00000+0 0  9997
2 31307   2.9781  79.8766 0004699  18.9947 142.2668  1.00271594 69825

GALAXY 18 (G-18)
1 32951U 08024A   26170.22696547  .00000019  00000+0  00000+0 0  9999
2 32951   0.0187  63.0486 0002850  22.5830 140.5282  1.00270923 45870

GALAXY 19 (G-19)
1 33376U 08045A   26170.23216550 -.00000145  00000+0  00000+0 0  9998
2 33376   0.0309 263.5335 0002554 189.7270 160.7811  1.00271215 64927

GALAXY 28 (G-28)
1 28702U 05022A   26170.24599436 -.00000207  00000+0  00000+0 0  9994
2 28702   3.3035  78.9096 0002831   9.1131 240.9290  1.00270961 51999

GALAXY 3C (G-3C)
1 27445U 02030A   26170.24364258 -.00000160  00000+0  00000+0 0  9993
2 27445   3.7383  77.9496 0001647  29.5101 152.8718  1.00271423 46514

HORIZONS-2
1 32388U 07063B   26170.09418547 -.00000261  00000+0  00000+0 0  9992
2 32388   2.6079  80.6019 0003873 358.9434 147.8698  1.00273138 67833

INTELSAT 10-02
1 28358U 04022A   26170.03727986 -.00000018  00000+0  00000+0 0  9990
2 28358   0.0178 304.3060 0000287 227.0710 108.3025  1.00270098 80572

INTELSAT 11 (IS-11)
1 32253U 07044B   26170.06076664 -.00000204  00000+0  00000+0 0  9996
2 32253   3.5713  78.6478 0002457  88.4670 239.6843  0.99050017 68467

INTELSAT 14 (IS-14)
1 36097U 09064A   26170.17116175 -.00000280  00000+0  00000+0 0  9998
2 36097   0.0124 321.8072 0002337 124.6896 197.5268  1.00271821 60622

INTELSAT 15 (IS-15)
1 36106U 09067A   26170.12566527 -.00000191  00000+0  00000+0 0  9998
2 36106   0.0159 340.9265 0002135 107.1363 309.6753  1.00272203 41245

INTELSAT 16 (IS-16)
1 36397U 10006A   26170.24252053 -.00000251  00000+0  00000+0 0  9991
2 36397   0.0097 336.1585 0001969 125.2068 177.2051  1.00272329 59672

INTELSAT 17 (IS-17)
1 37238U 10065B   26170.20650098 -.00000008  00000+0  00000+0 0  9998
2 37238   0.0023 213.0668 0002620 249.4320 305.2733  1.00271977 53263

INTELSAT 18 (IS-18)
1 37834U 11056A   26170.21086240  .00000046  00000+0  00000+0 0  9995
2 37834   0.0368 273.1459 0001760 174.3940  75.7990  1.00271194 53838

INTELSAT 19 (IS-19)
1 38356U 12030A   26170.14168064 -.00000063  00000+0  00000+0 0  9995
2 38356   0.0183   9.3106 0002947  86.6833  28.3730  1.00271504 50473

INTELSAT 20 (IS-20)
1 38740U 12043A   26170.12237191  .00000000  00000+0  00000+0 0  9992
2 38740   0.0349  67.9275 0001611 107.7521 204.2199  1.00269776 50761

INTELSAT 22 (IS-22)
1 38098U 12011A   26170.19955646 -.00000065  00000+0  00000+0 0  9994
2 38098   0.0152  39.7365 0001532  52.4251 319.2100  1.00272420  7204

INTELSAT 25 (IS-25)
1 33153U 08034A   26170.05989997 -.00000175  00000+0  00000+0 0  9994
2 33153   2.7158  80.3515 0003479  60.6368 261.1781  0.99033965 65702

INTELSAT 28 (IS-28)
1 37392U 11016A   26170.17376176 -.00000232  00000+0  00000+0 0  9993
2 37392   1.8124  82.5977 0003651   6.5709 209.0684  1.00271470 53304

INTELSAT 902 (IS-902)
1 26900U 01039A   26170.19105870 -.00000292  00000+0  00000+0 0  9999
2 26900   6.1219  71.7594 0004299  13.2542 201.0871  1.00271295 90715

INTELSAT 904 (IS-904)
1 27380U 02007A   26170.10252515 -.00000234  00000+0  00000+0 0  9994
2 27380   6.9257  69.1626 0006550   6.6050 196.9688  1.00270224 51780

INTELSAT 905 (IS-905)
1 27438U 02027A   26170.32432551  .00000085  00000+0  00000+0 0  9997
2 27438   6.7599  69.7758 0003919  22.6091 154.7037  1.00272396 51380

INTELSAT 906 (IS-906)
1 27513U 02041A   26170.17525133  .00000005  00000+0  00000+0 0  9991
2 27513   5.8073  72.8975 0004517 359.5701 322.1817  1.00270556 87047

XM-5
1 37185U 10053A   26170.22852549 -.00000029  00000+0  00000+0 0  9996
2 37185   0.0615 272.7088 0002842 286.0919  35.7239  1.00271359 57507
